ONEWEB-0634             
1 56075U 23043AF  26100.22970483  .00000201  00000+0  49886-3 0  9999
2 56075  87.8932 272.7904 0001459  87.2477 272.8821 13.15547258147460
ONEWEB-0635             
1 56076U 23043AG  26100.22494213  .00000113  00000+0  26549-3 0  9995
2 56076  87.8941 272.7480 0001791 103.6688 256.4642 13.15546582147497
ONEWEB-0636             
1 56077U 23043AH  26100.21701705  .00000044  00000+0  82344-4 0  9991
2 56077  87.8934 272.7609 0001786 102.0468 258.0863 13.15547173147474
ONEWEB-0637             
1 56078U 23043AJ  26099.98250432 -.00000007  00000+0 -51763-4 0  9991
2 56078  87.8930 272.8254 0001480 101.0067 259.1230 13.15546866147460
ONEWEB-0647             
1 56079U 23043AK  26099.97776036 -.00000002  00000+0 -39903-4 0  9991
2 56079  87.8931 272.8387 0001896  97.5999 262.5347 13.15548086147455
ONEWEB-0651             
1 56080U 23043AL  26100.27723303  .00000023  00000+0  25935-4 0  9999
2 56080  87.8929 272.7733 0001676 103.6411 256.4906 13.15547465148692
ONEWEB-0718             
1 56081U 23043AM  26100.19641826 -.00000083  00000+0 -25485-3 0  9997
2 56081  87.8929 272.7698 0001514  79.3549 280.7752 13.15546708147490
ONEWEB-0561             
1 56710U 23068A   26100.24393850  .00000044  00000+0  76290-4 0  9996
2 56710  87.9144 288.0071 0002019 102.2279 257.9080 13.20772266140535
ONEWEB-0668             
1 56711U 23068B   26099.80366970 -.00000028  00000+0 -10781-3 0  9995
2 56711  87.9065 242.3554 0001247  95.9619 264.1654 13.16594092142785
ONEWEB-0676             
1 56712U 23068C   26099.81156749 -.00000033  00000+0 -11972-3 0  9997
2 56712  87.9053 242.3629 0001866 111.7441 248.3889 13.16592605142707
ONEWEB-0677             
1 56713U 23068D   26100.23289184 -.00000939  00000+0 -23412-2 0  9993
2 56713  87.9143 288.0019 0001045 104.4760 255.6490 13.20763155140836
ONEWEB-0678             
1 56714U 23068E   26100.01262332  .00000128  00000+0  30619-3 0  9992
2 56714  87.8941 272.7923 0002046  94.4965 265.6399 13.15547774140327
ONEWEB-0679             
1 56715U 23068F   26100.15039947  .00000079  00000+0  17326-3 0  9997
2 56715  87.9062 242.2843 0001351 116.1699 243.9571 13.16593425142777
ONEWEB-0680             
1 56716U 23068G   26099.96912246 -.00009437  00000+0 -22886-1 0  9990
2 56716  87.9209 257.5557 0001296  97.2027 262.9255 13.21882120142087
ONEWEB-0681             
1 56717U 23068H   26100.17687412  .00004122  00000+0  99488-2 0  9998
2 56717  87.9189 257.5191 0002314 121.5885 238.5476 13.21791891142105
ONEWEB-0682             
1 56718U 23068J   26100.18850278 -.00000027  00000+0 -10498-3 0  9999
2 56718  87.8933 272.7594 0001211  93.1858 266.9411 13.15548657140517
