[{"OBJECT_NAME":"ONEWEB-0634","OBJECT_ID":"2023-043AF","EPOCH":"2026-04-10T05:30:46.497312","MEAN_MOTION":13.15547258,"ECCENTRICITY":0.0001459,"INCLINATION":87.8932,"RA_OF_ASC_NODE":272.7904,"ARG_OF_PERICENTER":87.2477,"MEAN_ANOMALY":272.8821,"EPHEMERIS_TYPE":0,"CLASSIFICATION_TYPE":"U","NORAD_CAT_ID":56075,"ELEMENT_SET_NO":999,"REV_AT_EPOCH":14746,"BSTAR":0.0004988600000000001,"MEAN_MOTION_DOT":2.01e-06,"MEAN_MOTION_DDOT":0.0},{"OBJECT_NAME":"ONEWEB-0635","OBJECT_ID":"2023-043AG","EPOCH":"2026-04-10T05:23:55.000032","MEAN_MOTION":13.15546582,"ECCENTRICITY":0.0001791,"INCLINATION":87.8941,"RA_OF_ASC_NODE":272.748,"ARG_OF_PERICENTER":103.6688,"MEAN_ANOMALY":256.4642,"EPHEMERIS_TYPE":0,"CLASSIFICATION_TYPE":"U","NORAD_CAT_ID":56076,"ELEMENT_SET_NO":999,"REV_AT_EPOCH":14749,"BSTAR":0.00026549,"MEAN_MOTION_DOT":1.13e-06,"MEAN_MOTION_DDOT":0.0},{"OBJECT_NAME":"ONEWEB-0636","OBJECT_ID":"2023-043AH","EPOCH":"2026-04-10T05:12:30.273120","MEAN_MOTION":13.15547173,"ECCENTRICITY":0.0001786,"INCLINATION":87.8934,"RA_OF_ASC_NODE":272.7609,"ARG_OF_PERICENTER":102.0468,"MEAN_ANOMALY":258.0863,"EPHEMERIS_TYPE":0,"CLASSIFICATION_TYPE":"U","NORAD_CAT_ID":56077,"ELEMENT_SET_NO":999,"REV_AT_EPOCH":14747,"BSTAR":8.2344e-05,"MEAN_MOTION_DOT":4.4e-07,"MEAN_MOTION_DDOT":0.0},{"OBJECT_NAME":"ONEWEB-0637","OBJECT_ID":"2023-043AJ","EPOCH":"2026-04-09T23:34:48.373248","MEAN_MOTION":13.15546866,"ECCENTRICITY":0.000148,"INCLINATION":87.893,"RA_OF_ASC_NODE":272.8254,"ARG_OF_PERICENTER":101.0067,"MEAN_ANOMALY":259.123,"EPHEMERIS_TYPE":0,"CLASSIFICATION_TYPE":"U","NORAD_CAT_ID":56078,"ELEMENT_SET_NO":999,"REV_AT_EPOCH":14746,"BSTAR":-5.1763000000000006e-05,"MEAN_MOTION_DOT":-7e-08,"MEAN_MOTION_DDOT":0.0},{"OBJECT_NAME":"ONEWEB-0647","OBJECT_ID":"2023-043AK","EPOCH":"2026-04-09T23:27:58.495104","MEAN_MOTION":13.15548086,"ECCENTRICITY":0.0001896,"INCLINATION":87.8931,"RA_OF_ASC_NODE":272.8387,"ARG_OF_PERICENTER":97.5999,"MEAN_ANOMALY":262.5347,"EPHEMERIS_TYPE":0,"CLASSIFICATION_TYPE":"U","NORAD_CAT_ID":56079,"ELEMENT_SET_NO":999,"REV_AT_EPOCH":14745,"BSTAR":-3.9903e-05,"MEAN_MOTION_DOT":-2e-08,"MEAN_MOTION_DDOT":0.0},{"OBJECT_NAME":"ONEWEB-0651","OBJECT_ID":"2023-043AL","EPOCH":"2026-04-10T06:39:12.933792","MEAN_MOTION":13.15547465,"ECCENTRICITY":0.0001676,"INCLINATION":87.8929,"RA_OF_ASC_NODE":272.7733,"ARG_OF_PERICENTER":103.6411,"MEAN_ANOMALY":256.4906,"EPHEMERIS_TYPE":0,"CLASSIFICATION_TYPE":"U","NORAD_CAT_ID":56080,"ELEMENT_SET_NO":999,"REV_AT_EPOCH":14869,"BSTAR":2.5935000000000005e-05,"MEAN_MOTION_DOT":2.3e-07,"MEAN_MOTION_DDOT":0.0},{"OBJECT_NAME":"ONEWEB-0718","OBJECT_ID":"2023-043AM","EPOCH":"2026-04-10T04:42:50.537664","MEAN_MOTION":13.15546708,"ECCENTRICITY":0.0001514,"INCLINATION":87.8929,"RA_OF_ASC_NODE":272.7698,"ARG_OF_PERICENTER":79.3549,"MEAN_ANOMALY":280.7752,"EPHEMERIS_TYPE":0,"CLASSIFICATION_TYPE":"U","NORAD_CAT_ID":56081,"ELEMENT_SET_NO":999,"REV_AT_EPOCH":14749,"BSTAR":-0.00025485000000000004,"MEAN_MOTION_DOT":-8.3e-07,"MEAN_MOTION_DDOT":0.0},{"OBJECT_NAME":"ONEWEB-0561","OBJECT_ID":"2023-068A","EPOCH":"2026-04-10T05:51:16.286400","MEAN_MOTION":13.20772266,"ECCENTRICITY":0.0002019,"INCLINATION":87.9144,"RA_OF_ASC_NODE":288.0071,"ARG_OF_PERICENTER":102.2279,"MEAN_ANOMALY":257.908,"EPHEMERIS_TYPE":0,"CLASSIFICATION_TYPE":"U","NORAD_CAT_ID":56710,"ELEMENT_SET_NO":999,"REV_AT_EPOCH":14053,"BSTAR":7.629e-05,"MEAN_MOTION_DOT":4.4e-07,"MEAN_MOTION_DDOT":0.0},{"OBJECT_NAME":"ONEWEB-0668","OBJECT_ID":"2023-068B","EPOCH":"2026-04-09T19:17:17.062080","MEAN_MOTION":13.16594092,"ECCENTRICITY":0.0001247,"INCLINATION":87.9065,"RA_OF_ASC_NODE":242.3554,"ARG_OF_PERICENTER":95.9619,"MEAN_ANOMALY":264.1654,"EPHEMERIS_TYPE":0,"CLASSIFICATION_TYPE":"U","NORAD_CAT_ID":56711,"ELEMENT_SET_NO":999,"REV_AT_EPOCH":14278,"BSTAR":-0.00010781,"MEAN_MOTION_DOT":-2.8e-07,"MEAN_MOTION_DDOT":0.0},{"OBJECT_NAME":"ONEWEB-0676","OBJECT_ID":"2023-068C","EPOCH":"2026-04-09T19:28:39.431136","MEAN_MOTION":13.16592605,"ECCENTRICITY":0.0001866,"INCLINATION":87.9053,"RA_OF_ASC_NODE":242.3629,"ARG_OF_PERICENTER":111.7441,"MEAN_ANOMALY":248.3889,"EPHEMERIS_TYPE":0,"CLASSIFICATION_TYPE":"U","NORAD_CAT_ID":56712,"ELEMENT_SET_NO":999,"REV_AT_EPOCH":14270,"BSTAR":-0.00011972,"MEAN_MOTION_DOT":-3.3e-07,"MEAN_MOTION_DDOT":0.0},{"OBJECT_NAME":"ONEWEB-0677","OBJECT_ID":"2023-068D","EPOCH":"2026-04-10T05:35:21.854976","MEAN_MOTION":13.20763155,"ECCENTRICITY":0.0001045,"INCLINATION":87.9143,"RA_OF_ASC_NODE":288.0019,"ARG_OF_PERICENTER":104.476,"MEAN_ANOMALY":255.649,"EPHEMERIS_TYPE":0,"CLASSIFICATION_TYPE":"U","NORAD_CAT_ID":56713,"ELEMENT_SET_NO":999,"REV_AT_EPOCH":14083,"BSTAR":-0.0023412,"MEAN_MOTION_DOT":-9.39e-06,"MEAN_MOTION_DDOT":0.0},{"OBJECT_NAME":"ONEWEB-0678","OBJECT_ID":"2023-068E","EPOCH":"2026-04-10T00:18:10.654848","MEAN_MOTION":13.15547774,"ECCENTRICITY":0.0002046,"INCLINATION":87.8941,"RA_OF_ASC_NODE":272.7923,"ARG_OF_PERICENTER":94.4965,"MEAN_ANOMALY":265.6399,"EPHEMERIS_TYPE":0,"CLASSIFICATION_TYPE":"U","NORAD_CAT_ID":56714,"ELEMENT_SET_NO":999,"REV_AT_EPOCH":14032,"BSTAR":0.00030619,"MEAN_MOTION_DOT":1.28e-06,"MEAN_MOTION_DDOT":0.0},{"OBJECT_NAME":"ONEWEB-0679","OBJECT_ID":"2023-068F","EPOCH":"2026-04-10T03:36:34.514208","MEAN_MOTION":13.16593425,"ECCENTRICITY":0.0001351,"INCLINATION":87.9062,"RA_OF_ASC_NODE":242.2843,"ARG_OF_PERICENTER":116.1699,"MEAN_ANOMALY":243.9571,"EPHEMERIS_TYPE":0,"CLASSIFICATION_TYPE":"U","NORAD_CAT_ID":56715,"ELEMENT_SET_NO":999,"REV_AT_EPOCH":14277,"BSTAR":0.00017326,"MEAN_MOTION_DOT":7.9e-07,"MEAN_MOTION_DDOT":0.0},{"OBJECT_NAME":"ONEWEB-0680","OBJECT_ID":"2023-068G","EPOCH":"2026-04-09T23:15:32.180544","MEAN_MOTION":13.2188212,"ECCENTRICITY":0.0001296,"INCLINATION":87.9209,"RA_OF_ASC_NODE":257.5557,"ARG_OF_PERICENTER":97.2027,"MEAN_ANOMALY":262.9255,"EPHEMERIS_TYPE":0,"CLASSIFICATION_TYPE":"U","NORAD_CAT_ID":56716,"ELEMENT_SET_NO":999,"REV_AT_EPOCH":14208,"BSTAR":-0.022886000000000004,"MEAN_MOTION_DOT":-9.437e-05,"MEAN_MOTION_DDOT":0.0},{"OBJECT_NAME":"ONEWEB-0681","OBJECT_ID":"2023-068H","EPOCH":"2026-04-10T04:14:41.923968","MEAN_MOTION":13.21791891,"ECCENTRICITY":0.0002314,"INCLINATION":87.9189,"RA_OF_ASC_NODE":257.5191,"ARG_OF_PERICENTER":121.5885,"MEAN_ANOMALY":238.5476,"EPHEMERIS_TYPE":0,"CLASSIFICATION_TYPE":"U","NORAD_CAT_ID":56717,"ELEMENT_SET_NO":999,"REV_AT_EPOCH":14210,"BSTAR":0.0099488,"MEAN_MOTION_DOT":4.122e-05,"MEAN_MOTION_DDOT":0.0},{"OBJECT_NAME":"ONEWEB-0682","OBJECT_ID":"2023-068J","EPOCH":"2026-04-10T04:31:26.640192","MEAN_MOTION":13.15548657,"ECCENTRICITY":0.0001211,"INCLINATION":87.8933,"RA_OF_ASC_NODE":272.7594,"ARG_OF_PERICENTER":93.1858,"MEAN_ANOMALY":266.9411,"EPHEMERIS_TYPE":0,"CLASSIFICATION_TYPE":"U","NORAD_CAT_ID":56718,"ELEMENT_SET_NO":999,"REV_AT_EPOCH":14051,"BSTAR":-0.00010498,"MEAN_MOTION_DOT":-2.7e-07,"MEAN_MOTION_DDOT":0.0}]